ONEWEB-0080             
1 45426U 20020C   24347.34132365 -.00000077  00000+0 -25398-3 0  9997
2 45426  87.8894 131.0275 0001070  94.1898 265.9352 13.11414894230387
ONEWEB-0090             
1 45427U 20020D   24346.82418734 -.00000459  00000+0 -13312-2 0  9993
2 45427  87.8897 131.1211 0001475  98.2627 261.8668 13.11415589230271
ONEWEB-0061             
1 45428U 20020E   24346.85628709  .00000543  00000+0  14955-2 0  9998
2 45428  87.8891 131.1053 0001449  96.5624 263.5669 13.11416706230237
ONEWEB-0081             
1 45429U 20020F   24346.83776490 -.00000090  00000+0 -29064-3 0  9995
2 45429  87.8898 131.1281 0001505  89.2784 270.8516 13.11418646230346
ONEWEB-0069             
1 45430U 20020G   24347.13277306 -.00000469  00000+0 -13582-2 0  9990
2 45430  87.8895 131.0591 0001402 101.4825 258.6460 13.11417456230325
ONEWEB-0031             
1 45431U 20020H   24346.79877448  .00000204  00000+0  53978-3 0  9994
2 45431  87.8899 131.1439 0001475 101.6821 258.4472 13.11414796230257
ONEWEB-0027             
1 45432U 20020J   24346.79512820 -.00000012  00000+0 -63738-4 0  9990
2 45432  87.9091 115.8962 0001645 112.7956 247.3349 13.17652092233616
ONEWEB-0064             
1 45433U 20020K   24346.79707881  .00000173  00000+0  45241-3 0  9998
2 45433  87.8895 131.1455 0001420 105.6281 254.5003 13.11413489230285
